FENGYUN 1C DEB          
1 29772U 99025BN  24318.13964778  .00003695  00000+0  22757-2 0  9992
2 29772  98.4182 191.5800 0140161 325.3142 189.2468 14.01308564907240
FENGYUN 1C DEB          
1 29773U 99025BP  24318.66875991  .00002282  00000+0  95888-3 0  9996
2 29773  98.9418  96.5236 0047426 350.5150  20.9417 14.26280189925776
FENGYUN 1C DEB          
1 29774U 99025BQ  24318.76546412  .00001008  00000+0  46924-3 0  9993
2 29774  99.0433 242.2643 0050753 170.4898 244.4559 14.22192302924744
FENGYUN 1C DEB          
1 29776U 99025BS  24318.62307307  .00000825  00000+0  51464-3 0  9999
2 29776  98.8150 349.8193 0022931 301.9962 182.9202 14.07447203915357
FENGYUN 1C DEB          
1 29777U 99025BT  24318.72593007  .00000496  00000+0  41042-3 0  9990
2 29777  99.3399   7.9770 0093189 193.6118 290.6706 13.91894352905598
FENGYUN 1C DEB          
1 29779U 99025BV  24318.51721471  .00001160  00000+0  63470-3 0  9995
2 29779  98.6968 335.2762 0063145 208.0352 151.7414 14.12867985918461
FENGYUN 1C DEB          
1 29780U 99025BW  24318.68560860  .00005488  00000+0  27321-2 0  9999
2 29780  99.2812 215.2122 0041560 163.9666 196.2833 14.16949135914893
FENGYUN 1C DEB          
1 29781U 99025BX  24318.96860628  .00001787  00000+0  11321-2 0  9997
2 29781  98.7943 318.9990 0072435 195.8186 219.6643 14.03918550911195
FENGYUN 1C DEB          
1 29782U 99025BY  24318.69811370  .00004353  00000+0  24982-2 0  9997
2 29782  99.1279   0.9154 0056284 226.5350 250.0901 14.09082964911162
FENGYUN 1C DEB          
1 29784U 99025CA  24319.00791727  .00003269  00000+0  12842-2 0  9995
2 29784  98.9507 221.0581 0062198   2.8738   8.2619 14.28955974927359
FENGYUN 1C DEB          
1 29786U 99025CC  24318.58596655  .00000910  00000+0  53849-3 0  9995
2 29786  98.7663 341.2204 0077700 337.1926 144.5529 14.08711885916101
FENGYUN 1C DEB          
1 29788U 99025CE  24318.71945182  .00006607  00000+0  29936-2 0  9993
2 29788  98.8114  24.0864 0044314 247.1911 237.4681 14.21731335917471
FENGYUN 1C DEB          
1 29789U 99025CF  24318.80310741  .00002986  00000+0  34339-2 0  9990
2 29789  99.4588 152.5762 0299829 192.2052 292.5069 13.52708860876585
FENGYUN 1C DEB          
1 29790U 99025CG  24318.58031992  .00002294  00000+0  86163-3 0  9990
2 29790  99.1094 286.2471 0076775 240.0206 119.3339 14.31029880928854
FENGYUN 1C DEB          
1 29791U 99025CH  24318.43891039  .00011840  00000+0  30605-2 0  9997
2 29791  99.0171 281.9607 0046536 167.9144 308.7919 14.49422649931146
FENGYUN 1C DEB          
1 29792U 99025CJ  24318.67432220  .00004057  00000+0  21905-2 0  9992
2 29792  98.7924  10.4259 0050469  79.0290 281.6554 14.12538201913801
FENGYUN 1C DEB          
1 29793U 99025CK  24318.53184247  .00002902  00000+0  18536-2 0  9994
2 29793  98.3734 164.5260 0144807   9.4152  20.0295 13.99184975906329
FENGYUN 1C DEB          
1 29794U 99025CL  24318.52323678  .00002212  00000+0  11873-2 0  9998
2 29794  98.1788 147.2294 0160758  91.1828 331.4560 14.07445325912996
FENGYUN 1C DEB          
1 29795U 99025CM  24318.35581297  .00000665  00000+0  52097-3 0  9997
2 29795  98.8165  99.3176 0111384 278.1595 136.2462 13.92618083905752
FENGYUN 1C DEB          
1 29796U 99025CN  24318.69043953  .00002441  00000+0  13693-2 0  9999
2 29796  98.9076   8.3589 0052655 301.7077 178.9726 14.10842021915014
FENGYUN 1C DEB          
1 29798U 99025CQ  24318.72719911  .00003959  00000+0  26980-2 0  9997
2 29798  99.3225  10.6831 0114916 268.8256 211.0742 13.97363697904177
FENGYUN 1C DEB          
1 29800U 99025CS  24318.71058307  .00004513  00000+0  30914-2 0  9994
2 29800  98.3116  12.1046 0139443 253.0807 238.2435 13.95464959900744
FENGYUN 1C DEB          
1 29801U 99025CT  24318.66513433  .00001480  00000+0  50187-3 0  9990
2 29801  98.8286 205.2018 0104944 349.1999  63.7227 14.35227802932877
FENGYUN 1C DEB          
1 29802U 99025CU  24318.76239903  .00018712  00000+0  49118-2 0  9996
2 29802  98.6207  49.2959 0047618 108.3908  22.7482 14.48531720927411
FENGYUN 1C DEB          
1 29804U 99025CW  24318.58758255  .00000294  00000+0  20406-3 0  9990
2 29804  98.8187 332.5071 0097668 325.2861 155.8514 14.04155086913624
FENGYUN 1C DEB          
1 29805U 99025CX  24318.41140569  .00000427  00000+0  45331-3 0  9998
2 29805  99.5113   7.6198 0189003 174.9923 185.3173 13.72473315892936
FENGYUN 1C DEB          
1 29806U 99025CY  24318.56160803  .00002031  00000+0  11522-2 0  9995
2 29806  98.7397 339.2393 0027245 292.5615 199.0415 14.10893420915783
FENGYUN 1C DEB          
1 29807U 99025CZ  24318.51044304  .00001214  00000+0  71583-3 0  9994
2 29807  98.7610 328.5543 0080635   4.9695 355.2257 14.08125153915457
FENGYUN 1C DEB          
1 29808U 99025DA  24318.58138765  .00032678  00000+0  68719-2 0  9991
2 29808  99.0440 181.5237 0018638 285.2256 137.8174 14.59333460923988
FENGYUN 1C DEB          
1 29809U 99025DB  24318.59604102  .00002318  00000+0  61986-3 0  9994
2 29809  98.8079 259.7926 0120120  89.8076  82.6212 14.45100693937716
FENGYUN 1C DEB          
1 29810U 99025DC  24318.59686500  .00001698  00000+0  68399-3 0  9993
2 29810  99.2378 326.8561 0068771  72.7145  42.5425 14.28176079927517
FENGYUN 1C DEB          
1 29811U 99025DD  24318.52770841  .00078572  00000+0  10288-1 0  9996
2 29811  99.0065 158.5829 0030621 265.6155  94.1555 14.79636412923569
FENGYUN 1C DEB          
1 29812U 99025DE  24318.07121609  .00003601  00000+0  22579-2 0  9997
2 29812  98.3914 173.4933 0144908   1.5706 151.8032 14.00041295906453
FENGYUN 1C DEB          
1 29813U 99025DF  24317.83194895  .00000447  00000+0  28145-3 0  9999
2 29813  98.7628 343.1428 0011469 261.4362 272.7505 14.09277985916977
FENGYUN 1C DEB          
1 29814U 99025DG  24318.94110571  .00479557  00000+0  17131-1 0  9995
2 29814  99.0870  97.9465 0029254 297.5172 186.6427 15.26380126937270
FENGYUN 1C DEB          
1 29815U 99025DH  24318.59303329  .00008148  00000+0  13453-2 0  9990
2 29815  98.0689 330.7511 0195077 293.3141  64.7636 14.58803223941067
FENGYUN 1C DEB          
1 29816U 99025DJ  24318.81335325  .00012154  00000+0  27361-2 0  9992
2 29816  99.0274 150.5338 0255201 263.7795 219.2569 14.38386726925118
FENGYUN 1C DEB          
1 29817U 99025DK  24318.70323566  .00001510  00000+0  82431-3 0  9999
2 29817  98.5386 319.1196 0013188  61.9819 357.4727 14.13458799918276
FENGYUN 1C DEB          
1 29818U 99025DL  24318.63695766  .00001196  00000+0  73648-3 0  9996
2 29818  98.7693 204.3100 0116051  50.9258  23.3598 14.04069847912785
FENGYUN 1C DEB          
1 29819U 99025DM  24317.93689773  .00001553  00000+0  89706-3 0  9999
2 29819  98.6992 312.8090 0192097  90.9378 329.0612 14.01494705910953
FENGYUN 1C DEB          
1 29820U 99025DN  24318.60617309  .00001468  00000+0  97483-3 0  9998
2 29820  98.8440 331.5815 0070803 256.0749 229.3480 14.01706509910363
FENGYUN 1C DEB          
1 29821U 99025DP  24318.71304502  .00004637  00000+0  13862-2 0  9998
2 29821  98.9253  11.2452 0388676 153.2170 328.6527 14.07549695909609
FENGYUN 1C DEB          
1 29827U 99025DV  24318.47109649  .00002018  00000+0  95135-3 0  9997
2 29827  98.5808 314.3135 0026598  24.9839 127.3226 14.20756160922629
FENGYUN 1C DEB          
1 29828U 99025DW  24318.64742563  .00002642  00000+0  15905-2 0  9994
2 29828  98.8082   8.8056 0061480 184.9729 306.3353 14.06651833911935
FENGYUN 1C DEB          
1 29832U 99025EA  24318.75973988  .00001618  00000+0  29757-3 0  9991
2 29832  98.8164  41.9847 0197199  43.8833 317.7838 14.55395194945225
FENGYUN 1C DEB          
1 29833U 99025EB  24318.77173360  .00019167  00000+0  23897-2 0  9996
2 29833  99.0404 241.6146 0118805  63.9604 297.3778 14.77552298947629
FENGYUN 1C DEB          
1 29835U 99025ED  24318.95391098  .00001417  00000+0  37096-3 0  9994
2 29835  98.9943  58.9134 0169552 125.0296 298.2757 14.42826369938212
FENGYUN 1C DEB          
1 29836U 99025EE  24318.55371948  .00003333  00000+0  72181-3 0  9996
2 29836  98.1860  57.7754 0161097 339.1964  31.0374 14.51092137938940
FENGYUN 1C DEB          
1 29841U 99025EK  24318.79528655  .00003702  00000+0  83872-3 0  9996
2 29841  98.7796 245.3491 0208288  74.3313 343.1604 14.44223560936436
FENGYUN 1C DEB          
1 29842U 99025EL  24318.46549380  .00009515  00000+0  20776-2 0  9990
2 29842  98.5964  28.1020 0119833 296.7932 185.0745 14.53639233936113
FENGYUN 1C DEB          
1 29843U 99025EM  24318.97045332  .00001527  00000+0  52486-3 0  9994
2 29843  99.0455 136.9100 0194911 349.5606 136.0472 14.27528662926720
FENGYUN 1C DEB          
1 29844U 99025EN  24318.43386320  .00003419  00000+0  11444-2 0  9991
2 29844  98.9704 201.6978 0171530 236.4575 122.0123 14.30078965927011
FENGYUN 1C DEB          
1 29845U 99025EP  24318.59650861  .00002304  00000+0  97402-3 0  9994
2 29845  98.5188 323.9380 0078606 203.4543 279.0306 14.24814599924936
FENGYUN 1C DEB          
1 29846U 99025EQ  24318.61477859  .00000776  00000+0  38084-3 0  9994
2 29846  98.7097   2.4960 0085131 359.1918 130.1575 14.18723521922702
FENGYUN 1C DEB          
1 29847U 99025ER  24318.95101924  .00001249  00000+0  81209-3 0  9992
2 29847  98.8884 317.8611 0085772  55.5260   9.0494 14.02556137912255
FENGYUN 1C DEB          
1 29848U 99025ES  24318.65041436  .00006428  00000+0  29686-2 0  9995
2 29848  98.2854 205.3027 0124148   3.3948  64.5083 14.17234961915284
FENGYUN 1C DEB          
1 29849U 99025ET  24318.72508694  .00002750  00000+0  17483-2 0  9994
2 29849  99.0270  40.1227 0083299  60.1235  70.4047 14.02896082908419
FENGYUN 1C DEB          
1 29850U 99025EU  24318.84380062  .00004545  00000+0  31015-2 0  9997
2 29850  98.0938 284.5671 0106033 324.2093  92.7491 13.97541545905181
FENGYUN 1C DEB          
1 29851U 99025EV  24318.67325286  .00000891  00000+0  79043-3 0  9990
2 29851  99.6328 345.1693 0143283 186.3620 290.0665 13.83166996899187
FENGYUN 1C DEB          
1 29852U 99025EW  24318.73077961  .00005236  00000+0  31156-2 0  9992
2 29852  99.3649 309.3097 0140997 155.4630  17.4139 14.02975415904504
